{
  "norad_id": 53723,
  "name": "STARLINK-4705",
  "history": [
    {
      "epoch": "2026-03-28T14:25:16.362048Z",
      "apogee_km": 540.5621951373696,
      "perigee_km": 538.9129738364272,
      "latitude_deg": 2.9526672687434223e-05,
      "longitude_deg": 126.5340528252112,
      "height_km": 540.6655301766929,
      "semi_major_axis_km": 6917.874584486898,
      "eccentricity": 0.0001192,
      "inclination_deg": 53.2176,
      "raan_deg": 168.8712,
      "arg_perigee_deg": 92.2233,
      "mean_anomaly_deg": 267.8896,
      "mean_motion_rev_day": 15.08841899
    },
    {
      "epoch": "2026-03-29T22:12:59.107104Z",
      "apogee_km": 540.6371714188226,
      "perigee_km": 538.842674145053,
      "latitude_deg": -7.914012772026672e-06,
      "longitude_deg": 2.3524381511812322,
      "height_km": 540.5532158700423,
      "semi_major_axis_km": 6917.8769227819375,
      "eccentricity": 0.0001297,
      "inclination_deg": 53.2167,
      "raan_deg": 162.9235,
      "arg_perigee_deg": 84.7284,
      "mean_anomaly_deg": 275.3856,
      "mean_motion_rev_day": 15.08841134
    },
    {
      "epoch": "2026-03-29T22:12:59.107968Z",
      "apogee_km": 540.6372405975917,
      "perigee_km": 538.842604966284,
      "latitude_deg": -8.819051528391015e-06,
      "longitude_deg": 2.352433868374233,
      "height_km": 540.5532095120902,
      "semi_major_axis_km": 6917.8769227819375,
      "eccentricity": 0.00012971,
      "inclination_deg": 53.2167,
      "raan_deg": 162.9235,
      "arg_perigee_deg": 84.7284,
      "mean_anomaly_deg": 275.3856,
      "mean_motion_rev_day": 15.08841134
    },
    {
      "epoch": "2026-03-30T10:56:04.284096Z",
      "apogee_km": 540.6673337022994,
      "perigee_km": 538.8129275586634,
      "latitude_deg": -3.581715601789423e-05,
      "longitude_deg": 168.67853316722926,
      "height_km": 540.5826402790501,
      "semi_major_axis_km": 6917.877130630482,
      "eccentricity": 0.00013403,
      "inclination_deg": 53.2168,
      "raan_deg": 160.5435,
      "arg_perigee_deg": 86.7126,
      "mean_anomaly_deg": 273.4019,
      "mean_motion_rev_day": 15.08841066
    },
    {
      "epoch": "2026-03-31T10:46:51.300768Z",
      "apogee_km": 540.6795324513478,
      "perigee_km": 538.7782261930743,
      "latitude_deg": 4.570446670424257e-05,
      "longitude_deg": 165.5446556582796,
      "height_km": 540.5103603427273,
      "semi_major_axis_km": 6917.865879322211,
      "eccentricity": 0.00013742,
      "inclination_deg": 53.2172,
      "raan_deg": 156.0848,
      "arg_perigee_deg": 83.1008,
      "mean_anomaly_deg": 277.0141,
      "mean_motion_rev_day": 15.08844747
    },
    {
      "epoch": "2026-04-01T09:02:15.367200Z",
      "apogee_km": 540.6830832835749,
      "perigee_km": 538.8111038478564,
      "latitude_deg": -4.685330579755274e-06,
      "longitude_deg": -173.38300694894855,
      "height_km": 540.5327055621693,
      "semi_major_axis_km": 6917.884093565715,
      "eccentricity": 0.0001353,
      "inclination_deg": 53.2165,
      "raan_deg": 151.9215,
      "arg_perigee_deg": 83.2494,
      "mean_anomaly_deg": 276.8652,
      "mean_motion_rev_day": 15.08838788
    },
    {
      "epoch": "2026-04-02T20:00:44.087904Z",
      "apogee_km": 540.5658102687876,
      "perigee_km": 538.8999871971737,
      "latitude_deg": -6.557277475948694e-07,
      "longitude_deg": 14.017270181529561,
      "height_km": 540.602268866029,
      "semi_major_axis_km": 6917.869898732981,
      "eccentricity": 0.0001204,
      "inclination_deg": 53.2161,
      "raan_deg": 145.3778,
      "arg_perigee_deg": 88.1826,
      "mean_anomaly_deg": 271.9304,
      "mean_motion_rev_day": 15.08843432
    },
    {
      "epoch": "2026-04-02T20:00:44.088768Z",
      "apogee_km": 540.5659486261866,
      "perigee_km": 538.8998488397756,
      "latitude_deg": -2.5014589412539364e-06,
      "longitude_deg": 14.017265199269733,
      "height_km": 540.6022644782099,
      "semi_major_axis_km": 6917.869898732981,
      "eccentricity": 0.00012042,
      "inclination_deg": 53.2161,
      "raan_deg": 145.3778,
      "arg_perigee_deg": 88.1826,
      "mean_anomaly_deg": 271.9304,
      "mean_motion_rev_day": 15.08843432
    },
    {
      "epoch": "2026-04-03T10:19:12.435456Z",
      "apogee_km": 540.6711878896303,
      "perigee_km": 538.8010100760512,
      "latitude_deg": 1.4505532711221148e-05,
      "longitude_deg": 156.13646321962244,
      "height_km": 540.6798509946078,
      "semi_major_axis_km": 6917.87309898284,
      "eccentricity": 0.00013517,
      "inclination_deg": 53.2164,
      "raan_deg": 142.7027,
      "arg_perigee_deg": 92.951,
      "mean_anomaly_deg": 267.1637,
      "mean_motion_rev_day": 15.08842385
    },
    {
      "epoch": "2026-04-04T08:34:37.367616Z",
      "apogee_km": 540.6892659360838,
      "perigee_km": 538.8499329294264,
      "latitude_deg": -1.5543712507233132e-05,
      "longitude_deg": 177.20589703915195,
      "height_km": 540.7196741372247,
      "semi_major_axis_km": 6917.906599432755,
      "eccentricity": 0.00013294,
      "inclination_deg": 53.2159,
      "raan_deg": 138.5401,
      "arg_perigee_deg": 93.3964,
      "mean_anomaly_deg": 266.718,
      "mean_motion_rev_day": 15.08831425
    },
    {
      "epoch": "2026-04-05T11:36:10.540512Z",
      "apogee_km": 540.6788124517016,
      "perigee_km": 538.8277233738127,
      "latitude_deg": -3.585917930378443e-05,
      "longitude_deg": 125.65454654844302,
      "height_km": 540.8319315885391,
      "semi_major_axis_km": 6917.890267912757,
      "eccentricity": 0.00013379,
      "inclination_deg": 53.2161,
      "raan_deg": 133.4869,
      "arg_perigee_deg": 101.4055,
      "mean_anomaly_deg": 258.7087,
      "mean_motion_rev_day": 15.08836768
    },
    {
      "epoch": "2026-04-05T19:33:06.237792Z",
      "apogee_km": 540.6251831619047,
      "perigee_km": 538.8921119442803,
      "latitude_deg": -3.286340086015189e-05,
      "longitude_deg": 4.607630369104298,
      "height_km": 540.7055843847219,
      "semi_major_axis_km": 6917.895647553092,
      "eccentricity": 0.00012526,
      "inclination_deg": 53.2158,
      "raan_deg": 131.9985,
      "arg_perigee_deg": 93.3905,
      "mean_anomaly_deg": 266.723,
      "mean_motion_rev_day": 15.08835008
    },
    {
      "epoch": "2026-04-07T11:17:44.510784Z",
      "apogee_km": 540.6256345344855,
      "perigee_km": 538.8513378297894,
      "latitude_deg": 2.527769897417315e-05,
      "longitude_deg": 119.37957197487866,
      "height_km": 540.6994129377595,
      "semi_major_axis_km": 6917.875486182137,
      "eccentricity": 0.00012824,
      "inclination_deg": 53.2161,
      "raan_deg": 124.5621,
      "arg_perigee_deg": 94.218,
      "mean_anomaly_deg": 265.8959,
      "mean_motion_rev_day": 15.08841604
    },
    {
      "epoch": "2026-04-07T19:14:40.197696Z",
      "apogee_km": 540.6301688542908,
      "perigee_km": 538.8481239589764,
      "latitude_deg": 4.7779409731694324e-05,
      "longitude_deg": -1.665686759926407,
      "height_km": 540.6930564539877,
      "semi_major_axis_km": 6917.876146406634,
      "eccentricity": 0.0001288,
      "inclination_deg": 53.216,
      "raan_deg": 123.0753,
      "arg_perigee_deg": 93.7488,
      "mean_anomaly_deg": 266.3652,
      "mean_motion_rev_day": 15.08841388
    },
    {
      "epoch": "2026-04-08T11:08:31.375392Z",
      "apogee_km": 540.6296671828013,
      "perigee_km": 538.8397370585944,
      "latitude_deg": -1.7319299184558893e-05,
      "longitude_deg": 116.24463326793936,
      "height_km": 540.6715768489714,
      "semi_major_axis_km": 6917.871702120698,
      "eccentricity": 0.00012937,
      "inclination_deg": 53.216,
      "raan_deg": 120.1018,
      "arg_perigee_deg": 92.6399,
      "mean_anomaly_deg": 267.4741,
      "mean_motion_rev_day": 15.08842842
    },
    {
      "epoch": "2026-04-09T04:37:46.697376Z",
      "apogee_km": 540.6902346339693,
      "perigee_km": 538.8392808396693,
      "latitude_deg": 1.2396034628749476e-05,
      "longitude_deg": -150.059278230585,
      "height_km": 540.7400342010342,
      "semi_major_axis_km": 6917.901757736819,
      "eccentricity": 0.00013378,
      "inclination_deg": 53.2149,
      "raan_deg": 116.8299,
      "arg_perigee_deg": 94.9468,
      "mean_anomaly_deg": 265.1677,
      "mean_motion_rev_day": 15.08833009
    },
    {
      "epoch": "2026-04-10T07:39:20.188224Z",
      "apogee_km": 540.5379853961495,
      "perigee_km": 538.9809052642349,
      "latitude_deg": -4.9992696338142375e-06,
      "longitude_deg": 158.38744339060048,
      "height_km": 540.6410198807029,
      "semi_major_axis_km": 6917.896445330192,
      "eccentricity": 0.00011254,
      "inclination_deg": 53.2172,
      "raan_deg": 111.7761,
      "arg_perigee_deg": 88.9379,
      "mean_anomaly_deg": 271.1742,
      "mean_motion_rev_day": 15.08834747
    },
    {
      "epoch": "2026-04-11T17:02:26.317248Z",
      "apogee_km": 540.6668189185903,
      "perigee_km": 538.8432625766491,
      "latitude_deg": 5.266620446154992e-06,
      "longitude_deg": 9.996735991026977,
      "height_km": 540.7012517026028,
      "semi_major_axis_km": 6917.89204074762,
      "eccentricity": 0.0001318,
      "inclination_deg": 53.2168,
      "raan_deg": 105.532,
      "arg_perigee_deg": 93.1757,
      "mean_anomaly_deg": 266.9386,
      "mean_motion_rev_day": 15.08836188
    },
    {
      "epoch": "2026-04-13T05:36:18.116064Z",
      "apogee_km": 540.6376107317683,
      "perigee_km": 538.8332912391024,
      "latitude_deg": 4.119978830346644e-05,
      "longitude_deg": 173.18868740608633,
      "height_km": 540.6051794245651,
      "semi_major_axis_km": 6917.8724509854355,
      "eccentricity": 0.00013041,
      "inclination_deg": 53.2163,
      "raan_deg": 98.6914,
      "arg_perigee_deg": 88.3527,
      "mean_anomaly_deg": 271.7615,
      "mean_motion_rev_day": 15.08842597
    },
    {
      "epoch": "2026-04-14T16:34:47.330976Z",
      "apogee_km": 540.7088342921979,
      "perigee_km": 538.7732120213186,
      "latitude_deg": -7.013368656618346e-05,
      "longitude_deg": 0.5881140633467635,
      "height_km": 540.5571954011665,
      "semi_major_axis_km": 6917.878023156758,
      "eccentricity": 0.0001399,
      "inclination_deg": 53.2163,
      "raan_deg": 92.149,
      "arg_perigee_deg": 85.2952,
      "mean_anomaly_deg": 274.8199,
      "mean_motion_rev_day": 15.08840774
    },
    {
      "epoch": "2026-04-15T16:25:34.184352Z",
      "apogee_km": 540.7092155202527,
      "perigee_km": 538.7749765250046,
      "latitude_deg": 3.4019047508856984e-05,
      "longitude_deg": -2.5467637773490837,
      "height_km": 540.546023608319,
      "semi_major_axis_km": 6917.879096022629,
      "eccentricity": 0.0001398,
      "inclination_deg": 53.2168,
      "raan_deg": 87.6886,
      "arg_perigee_deg": 84.5611,
      "mean_anomaly_deg": 275.5541,
      "mean_motion_rev_day": 15.08840423
    },
    {
      "epoch": "2026-04-16T08:19:25.419072Z",
      "apogee_km": 540.7178782446772,
      "perigee_km": 538.7615027166103,
      "latitude_deg": 3.1273474009569474e-05,
      "longitude_deg": 115.36366766568351,
      "height_km": 540.5021709370728,
      "semi_major_axis_km": 6917.876690480643,
      "eccentricity": 0.0001414,
      "inclination_deg": 53.2165,
      "raan_deg": 84.7154,
      "arg_perigee_deg": 82.1813,
      "mean_anomaly_deg": 277.934,
      "mean_motion_rev_day": 15.0884121
    }
  ]
}